start=new Date('2023-01-14T00:00:00.000Z').valueOf();
sats=[{"TIME_SYSTEM":"UTC","ECCENTRICITY":"0.00011590","RCS_SIZE":"LARGE","CENTER_NAME":"EARTH","RA_OF_ASC_NODE":"253.2876","ARG_OF_PERICENTER":"112.3197","MEAN_ANOMALY":"247.7915","ELEMENT_SET_NO":"999","MEAN_MOTION_DDOT":"0.0000000000000","SEMIMAJOR_AXIS":"6925.384","EPHEMERIS_TYPE":"0","REF_FRAME":"TEME","PERIAPSIS":"546.446","MEAN_ELEMENT_THEORY":"SGP4","FILE":"3743722","DECAY_DATE":null,"SITE":"AFETR","OBJECT_TYPE":"PAYLOAD","MEAN_MOTION":"15.06388520","EPOCH":"2023-01-13T18:32:03.111936","INCLINATION":"53.0530","NORAD_CAT_ID":"46043","TLE_LINE2":"2 46043  53.0530 253.2876 0001159 112.3197 247.7915 15.06388520135415","PERIOD":"95.593","MEAN_MOTION_DOT":"0.00002611","OBJECT_ID":"2020-055S","APOAPSIS":"548.051","COUNTRY_CODE":"US","LAUNCH_DATE":"2020-08-07","REV_AT_EPOCH":"13541","CLASSIFICATION_TYPE":"U","OBJECT_NAME":"STARLINK-1582","TLE_LINE1":"1 46043U 20055S   23013.77225824  .00002611  00000-0  19419-3 0  9992","GP_ID":"222970413","BSTAR":"0.00019419000000"},{"CLASSIFICATION_TYPE":"U","OBJECT_NAME":"STARLINK-1584","REV_AT_EPOCH":"13544","TLE_LINE1":"1 46044U 20055T   23013.91872620  .00001103  00000-0  92933-4 0  9999","GP_ID":"222971158","BSTAR":"0.00009293300000","APOAPSIS":"548.065","COUNTRY_CODE":"US","LAUNCH_DATE":"2020-08-07","INCLINATION":"53.0539","NORAD_CAT_ID":"46044","TLE_LINE2":"2 46044  53.0539 252.6253 0001255  75.3447 284.7681 15.06405878135440","PERIOD":"95.592","MEAN_MOTION_DOT":"0.00001103","OBJECT_ID":"2020-055T","DECAY_DATE":null,"FILE":"3743722","SITE":"AFETR","OBJECT_TYPE":"PAYLOAD","MEAN_MOTION":"15.06405878","EPOCH":"2023-01-13T22:02:57.943680","REF_FRAME":"TEME","PERIAPSIS":"546.326","MEAN_ELEMENT_THEORY":"SGP4","RA_OF_ASC_NODE":"252.6253","MEAN_ANOMALY":"284.7681","ARG_OF_PERICENTER":"75.3447","ELEMENT_SET_NO":"999","SEMIMAJOR_AXIS":"6925.331","MEAN_MOTION_DDOT":"0.0000000000000","EPHEMERIS_TYPE":"0","RCS_SIZE":"LARGE","CENTER_NAME":"EARTH","TIME_SYSTEM":"UTC","ECCENTRICITY":"0.00012550"},{"GP_ID":"222969414","BSTAR":"0.00026269000000","TLE_LINE1":"1 46045U 20055U   23013.93075109  .00003633  00000-0  26269-3 0  9997","OBJECT_NAME":"STARLINK-1591","CLASSIFICATION_TYPE":"U","REV_AT_EPOCH":"13542","COUNTRY_CODE":"US","LAUNCH_DATE":"2020-08-07","APOAPSIS":"548.106","TLE_LINE2":"2 46045  53.0523 252.5879 0001278  69.2972 290.8153 15.06397508135427","MEAN_MOTION_DOT":"0.00003633","PERIOD":"95.592","OBJECT_ID":"2020-055U","NORAD_CAT_ID":"46045","INCLINATION":"53.0523","MEAN_MOTION":"15.06397508","EPOCH":"2023-01-13T22:20:16.894176","OBJECT_TYPE":"PAYLOAD","SITE":"AFETR","DECAY_DATE":null,"FILE":"3743722","REF_FRAME":"TEME","PERIAPSIS":"546.336","MEAN_ELEMENT_THEORY":"SGP4","MEAN_MOTION_DDOT":"0.0000000000000","SEMIMAJOR_AXIS":"6925.356","EPHEMERIS_TYPE":"0","ELEMENT_SET_NO":"999","MEAN_ANOMALY":"290.8153","ARG_OF_PERICENTER":"69.2972","RA_OF_ASC_NODE":"252.5879","CENTER_NAME":"EARTH","RCS_SIZE":"LARGE","ECCENTRICITY":"0.00012780","TIME_SYSTEM":"UTC"},{"APOAPSIS":"548.313","COUNTRY_CODE":"US","LAUNCH_DATE":"2020-08-07","CLASSIFICATION_TYPE":"U","REV_AT_EPOCH":"13557","OBJECT_NAME":"STARLINK-1524","TLE_LINE1":"1 46047U 20055W   23013.88376007  .00003912  00000-0  28138-3 0  9991","BSTAR":"0.00028138000000","GP_ID":"222969664","FILE":"3743722","DECAY_DATE":null,"SITE":"AFETR","OBJECT_TYPE":"PAYLOAD","EPOCH":"2023-01-13T21:12:36.870048","MEAN_MOTION":"15.06399108","INCLINATION":"53.0547","NORAD_CAT_ID":"46047","OBJECT_ID":"2020-055W","TLE_LINE2":"2 46047  53.0547 242.7843 0001583  76.9990 283.1175 15.06399108135574","PERIOD":"95.592","MEAN_MOTION_DOT":"0.00003912","RA_OF_ASC_NODE":"242.7843","MEAN_ANOMALY":"283.1175","ARG_OF_PERICENTER":"76.9990","ELEMENT_SET_NO":"999","EPHEMERIS_TYPE":"0","MEAN_MOTION_DDOT":"0.0000000000000","SEMIMAJOR_AXIS":"6925.351","MEAN_ELEMENT_THEORY":"SGP4","PERIAPSIS":"546.120","REF_FRAME":"TEME","TIME_SYSTEM":"UTC","ECCENTRICITY":"0.00015830","RCS_SIZE":"LARGE","CENTER_NAME":"EARTH"},{"OBJECT_NAME":"STARLINK-1527","REV_AT_EPOCH":"13552","CLASSIFICATION_TYPE":"U","TLE_LINE1":"1 46048U 20055X   23013.68102863  .00002298  00000-0  17317-3 0  9990","GP_ID":"222970912","BSTAR":"0.00017317000000","APOAPSIS":"548.087","COUNTRY_CODE":"US","LAUNCH_DATE":"2020-08-07","INCLINATION":"53.0525","NORAD_CAT_ID":"46048","TLE_LINE2":"2 46048  53.0525 243.7051 0001200  79.8419 280.2706 15.06386076135520","MEAN_MOTION_DOT":"0.00002298","PERIOD":"95.593","OBJECT_ID":"2020-055X","FILE":"3743722","DECAY_DATE":null,"SITE":"AFETR","OBJECT_TYPE":"PAYLOAD","MEAN_MOTION":"15.06386076","EPOCH":"2023-01-13T16:20:40.873632","PERIAPSIS":"546.425","REF_FRAME":"TEME","MEAN_ELEMENT_THEORY":"SGP4","RA_OF_ASC_NODE":"243.7051","ARG_OF_PERICENTER":"79.8419","MEAN_ANOMALY":"280.2706","ELEMENT_SET_NO":"999","MEAN_MOTION_DDOT":"0.0000000000000","SEMIMAJOR_AXIS":"6925.391","EPHEMERIS_TYPE":"0","RCS_SIZE":"LARGE","CENTER_NAME":"EARTH","TIME_SYSTEM":"UTC","ECCENTRICITY":"0.00012000"},{"CENTER_NAME":"EARTH","RCS_SIZE":"LARGE","ECCENTRICITY":"0.00014480","TIME_SYSTEM":"UTC","PERIAPSIS":"546.198","REF_FRAME":"TEME","MEAN_ELEMENT_THEORY":"SGP4","ELEMENT_SET_NO":"999","SEMIMAJOR_AXIS":"6925.335","MEAN_MOTION_DDOT":"0.0000000000000","EPHEMERIS_TYPE":"0","RA_OF_ASC_NODE":"242.8226","ARG_OF_PERICENTER":"61.7659","MEAN_ANOMALY":"298.3476","NORAD_CAT_ID":"46049","TLE_LINE2":"2 46049  53.0513 242.8226 0001448  61.7659 298.3476 15.06404296135587","MEAN_MOTION_DOT":"0.00013637","PERIOD":"95.592","OBJECT_ID":"2020-055Y","INCLINATION":"53.0513","OBJECT_TYPE":"PAYLOAD","MEAN_MOTION":"15.06404296","EPOCH":"2023-01-13T21:01:59.300256","DECAY_DATE":null,"FILE":"3743722","SITE":"AFETR","GP_ID":"222970659","BSTAR":"0.00093252000000","CLASSIFICATION_TYPE":"U","REV_AT_EPOCH":"13558","OBJECT_NAME":"STARLINK-1530","TLE_LINE1":"1 46049U 20055Y   23013.87638079  .00013637  00000-0  93252-3 0  9996","LAUNCH_DATE":"2020-08-07","COUNTRY_CODE":"US","APOAPSIS":"548.203"},{"TLE_LINE1":"1 46051U 20055AA  23013.91324102  .00018004  00000-0  12245-2 0  9998","OBJECT_NAME":"STARLINK-1540","REV_AT_EPOCH":"13559","CLASSIFICATION_TYPE":"U","BSTAR":"0.00122450000000","GP_ID":"222969914","APOAPSIS":"548.137","COUNTRY_CODE":"US","LAUNCH_DATE":"2020-08-07","INCLINATION":"53.0532","TLE_LINE2":"2 46051  53.0532 242.6648 0001330  82.5878 277.5262 15.06399186135595","MEAN_MOTION_DOT":"0.00018004","PERIOD":"95.592","OBJECT_ID":"2020-055AA","NORAD_CAT_ID":"46051","SITE":"AFETR","FILE":"3743722","DECAY_DATE":null,"EPOCH":"2023-01-13T21:55:04.024128","MEAN_MOTION":"15.06399186","OBJECT_TYPE":"PAYLOAD","MEAN_ELEMENT_THEORY":"SGP4","REF_FRAME":"TEME","PERIAPSIS":"546.295","MEAN_ANOMALY":"277.5262","ARG_OF_PERICENTER":"82.5878","RA_OF_ASC_NODE":"242.6648","EPHEMERIS_TYPE":"0","SEMIMAJOR_AXIS":"6925.351","MEAN_MOTION_DDOT":"0.0000000000000","ELEMENT_SET_NO":"999","RCS_SIZE":"LARGE","CENTER_NAME":"EARTH","TIME_SYSTEM":"UTC","ECCENTRICITY":"0.00013300"},{"MEAN_ELEMENT_THEORY":"SGP4","PERIAPSIS":"546.299","REF_FRAME":"TEME","ELEMENT_SET_NO":"999","EPHEMERIS_TYPE":"0","SEMIMAJOR_AXIS":"6925.338","MEAN_MOTION_DDOT":"0.0000000000000","RA_OF_ASC_NODE":"242.7244","MEAN_ANOMALY":"265.7069","ARG_OF_PERICENTER":"94.4069","CENTER_NAME":"EARTH","RCS_SIZE":"LARGE","ECCENTRICITY":"0.00013050","TIME_SYSTEM":"UTC","BSTAR":"0.00013435000000","GP_ID":"222970164","OBJECT_NAME":"STARLINK-1541","CLASSIFICATION_TYPE":"U","REV_AT_EPOCH":"13555","TLE_LINE1":"1 46052U 20055AB  23013.89849612  .00001720  00000-0  13435-3 0  9994","LAUNCH_DATE":"2020-08-07","COUNTRY_CODE":"US","APOAPSIS":"548.107","NORAD_CAT_ID":"46052","OBJECT_ID":"2020-055AB","TLE_LINE2":"2 46052  53.0502 242.7244 0001305  94.4069 265.7069 15.06403520135550","PERIOD":"95.592","MEAN_MOTION_DOT":"0.00001720","INCLINATION":"53.0502","OBJECT_TYPE":"PAYLOAD","EPOCH":"2023-01-13T21:33:50.064768","MEAN_MOTION":"15.06403520","DECAY_DATE":null,"FILE":"3743722","SITE":"AFETR"},{"SITE":"AFETR","DECAY_DATE":null,"FILE":"3743722","EPOCH":"2023-01-13T21:39:08.778816","MEAN_MOTION":"15.06400371","OBJECT_TYPE":"PAYLOAD","INCLINATION":"53.0526","TLE_LINE2":"2 46053  53.0526 242.7179 0001776  58.6075 301.5087 15.06400371135588","MEAN_MOTION_DOT":"0.00001591","PERIOD":"95.592","OBJECT_ID":"2020-055AC","NORAD_CAT_ID":"46053","APOAPSIS":"548.442","LAUNCH_DATE":"2020-08-07","COUNTRY_CODE":"US","TLE_LINE1":"1 46053U 20055AC  23013.90218494  .00001591  00000-0  12571-3 0  9991","CLASSIFICATION_TYPE":"U","OBJECT_NAME":"STARLINK-1543","REV_AT_EPOCH":"13558","BSTAR":"0.00012571000000","GP_ID":"222970414","TIME_SYSTEM":"UTC","ECCENTRICITY":"0.00017760","RCS_SIZE":"LARGE","CENTER_NAME":"EARTH","ARG_OF_PERICENTER":"58.6075","MEAN_ANOMALY":"301.5087","RA_OF_ASC_NODE":"242.7179","EPHEMERIS_TYPE":"0","SEMIMAJOR_AXIS":"6925.347","MEAN_MOTION_DDOT":"0.0000000000000","ELEMENT_SET_NO":"999","MEAN_ELEMENT_THEORY":"SGP4","PERIAPSIS":"545.982","REF_FRAME":"TEME"},{"MEAN_ELEMENT_THEORY":"SGP4","PERIAPSIS":"546.152","REF_FRAME":"TEME","EPHEMERIS_TYPE":"0","MEAN_MOTION_DDOT":"0.0000000000000","SEMIMAJOR_AXIS":"6925.326","ELEMENT_SET_NO":"999","MEAN_ANOMALY":"268.0530","ARG_OF_PERICENTER":"92.0631","RA_OF_ASC_NODE":"245.0674","CENTER_NAME":"EARTH","RCS_SIZE":"LARGE","ECCENTRICITY":"0.00015000","TIME_SYSTEM":"UTC","BSTAR":"0.00005487800000","GP_ID":"222938392","TLE_LINE1":"1 46054U 20055AD  23013.37875702  .00000536  00000-0  54878-4 0  9999","OBJECT_NAME":"STARLINK-1548","CLASSIFICATION_TYPE":"U","REV_AT_EPOCH":"13550","LAUNCH_DATE":"2020-08-07","COUNTRY_CODE":"US","APOAPSIS":"548.230","OBJECT_ID":"2020-055AD","TLE_LINE2":"2 46054  53.0538 245.0674 0001500  92.0631 268.0530 15.06407294135506","PERIOD":"95.592","MEAN_MOTION_DOT":"0.00000536","NORAD_CAT_ID":"46054","INCLINATION":"53.0538","EPOCH":"2023-01-13T09:05:24.606528","MEAN_MOTION":"15.06407294","OBJECT_TYPE":"PAYLOAD","SITE":"AFETR","DECAY_DATE":null,"FILE":"3743417"}];
